ORBCOMM FM37            
1 33064U 08031E   25023.80408721  .00004537  00000+0  63856-3 0  9999
2 33064  48.4401 309.5937 0005684 113.2116 296.4113 14.78781786892678
ORBCOMM FM40            
1 33065U 08031F   25023.93280611  .00005329  00000+0  71109-3 0  9990
2 33065  48.4419 295.2979 0007177 125.8602 329.1224 14.80758761892771
VESSELSAT 1             
1 37840U 11058C   25023.93798398  .00000533  00000+0  14628-3 0  9999
2 37840  19.9609 246.7143 0013699  40.2132 319.9284 14.11298419685909
ORBCOMM FM109           
1 40086U 14040A   25023.93409151  .00002314  00000+0  53849-3 0  9992
2 40086  47.0042 337.3740 0001804  12.2806 347.8123 14.57718901560019
ORBCOMM FM107           
1 40087U 14040B   25023.90042261  .00002183  00000+0  50944-3 0  9992
2 40087  47.0058 338.5452 0001849 328.4172  31.6602 14.57784865560086
ORBCOMM FM106           
1 40088U 14040C   25023.85493839  .00003656  00000+0  65090-3 0  9992
2 40088  47.0578 172.3214 0016576 119.8867 240.3672 14.68759265562255
ORBCOMM FM111           
1 40089U 14040D   25023.09771407  .00006082  00000+0  72567-3 0  9992
2 40089  47.0028  45.3440 0030820 221.0630 138.7946 14.84866328568659
ORBCOMM FM104           
1 40090U 14040E   25023.25241179  .00002141  00000+0  51648-3 0  9999
2 40090  47.0057  13.4937 0017372 264.4612  95.4292 14.56232959559499
